{"type": "FeatureCollection", "features": [ {"type": "Feature", "properties": {"norad_id": 58662, "name": "TIANMU-1 21", "group": "weather", "lat": -31.919003448869432, "lon": -86.80027799539197, "alt_km": 475.4350357239755, "timestamp": "2025-12-10T11:33:53.034668+00:00", "meta": {"OBJECT_NAME": "TIANMU-1 21", "OBJECT_ID": "2023-208C", "EPOCH": "2025-12-10T05:56:10.977792", "MEAN_MOTION": 15.31464302, "ECCENTRICITY": 0.0005869, "INCLINATION": 97.4374, "RA_OF_ASC_NODE": 97.6319, "ARG_OF_PERICENTER": 270.6549, "MEAN_ANOMALY": 89.402, "EPHEMERIS_TYPE": 0, "CLASSIFICATION_TYPE": "U", "NORAD_CAT_ID": 58662, "ELEMENT_SET_NO": 999, "REV_AT_EPOCH": 10861, "BSTAR": 0.00050957, "MEAN_MOTION_DOT": 0.00015427, "MEAN_MOTION_DDOT": 0}, "tle": {"line1": "1 58662U 23208C   25344.24734928  .00015427  00000+0  50957-3 0  9996", "line2": "2 58662  97.4374  97.6319 0005869 270.6549  89.4020 15.31464302108617"}}, "geometry": {"type": "Point", "coordinates": [-86.80027799539197, -31.919003448869432]}}, {"type": "Feature", "properties": {"norad_id": 58663, "name": "TIANMU-1 22", "group": "weather", "lat": 13.395246837201004, "lon": -82.63357034614077, "alt_km": 485.64262210318157, "timestamp": "2025-12-10T11:33:53.034678+00:00", "meta": {"OBJECT_NAME": "TIANMU-1 22", "OBJECT_ID": "2023-208D", "EPOCH": "2025-12-10T04:32:59.356032", "MEAN_MOTION": 15.27533721, "ECCENTRICITY": 0.0002751, "INCLINATION": 97.4382, "RA_OF_ASC_NODE": 95.292, "ARG_OF_PERICENTER": 300.1914, "MEAN_ANOMALY": 59.9052, "EPHEMERIS_TYPE": 0, "CLASSIFICATION_TYPE": "U", "NORAD_CAT_ID": 58663, "ELEMENT_SET_NO": 999, "REV_AT_EPOCH": 10844, "BSTAR": 0.00047246, "MEAN_MOTION_DOT": 0.0001266, "MEAN_MOTION_DDOT": 0}, "tle": {"line1": "1 58663U 23208D   25344.18957588  .00012660  00000+0  47246-3 0  9992", "line2": "2 58663  97.4382  95.2920 0002751 300.1914  59.9052 15.27533721108446"}}, "geometry": {"type": "Point", "coordinates": [-82.63357034614077, 13.395246837201004]}}, {"type": "Feature", "properties": {"norad_id": 58700, "name": "TIANMU-1 15", "group": "weather", "lat": -40.18001701612017, "lon": 172.31553217917386, "alt_km": 494.91138638483244, "timestamp": "2025-12-10T11:33:53.034689+00:00", "meta": {"OBJECT_NAME": "TIANMU-1 15", "OBJECT_ID": "2024-004A", "EPOCH": "2025-12-10T03:51:59.333760", "MEAN_MOTION": 15.24624445, "ECCENTRICITY": 0.00053, "INCLINATION": 97.4631, "RA_OF_ASC_NODE": 165.6403, "ARG_OF_PERICENTER": 309.5893, "MEAN_ANOMALY": 50.4876, "EPHEMERIS_TYPE": 0, "CLASSIFICATION_TYPE": "U", "NORAD_CAT_ID": 58700, "ELEMENT_SET_NO": 999, "REV_AT_EPOCH": 10695, "BSTAR": 0.00038281, "MEAN_MOTION_DOT": 9.381e-05, "MEAN_MOTION_DDOT": 0}, "tle": {"line1": "1 58700U 24004A   25344.16110340  .00009381  00000+0  38281-3 0  9999", "line2": "2 58700  97.4631 165.6403 0005300 309.5893  50.4876 15.24624445106950"}}, "geometry": {"type": "Point", "coordinates": [172.31553217917386, -40.18001701612017]}}, {"type": "Feature", "properties": {"norad_id": 58701, "name": "TIANMU-1 16", "group": "weather", "lat": 42.835375229467374, "lon": 158.3756945876179, "alt_km": 489.5351195861913, "timestamp": "2025-12-10T11:33:53.034699+00:00", "meta": {"OBJECT_NAME": "TIANMU-1 16", "OBJECT_ID": "2024-004B", "EPOCH": "2025-12-10T05:04:25.773024", "MEAN_MOTION": 15.24376956, "ECCENTRICITY": 0.0004605, "INCLINATION": 97.457, "RA_OF_ASC_NODE": 165.0818, "ARG_OF_PERICENTER": 307.6999, "MEAN_ANOMALY": 52.382, "EPHEMERIS_TYPE": 0, "CLASSIFICATION_TYPE": "U", "NORAD_CAT_ID": 58701, "ELEMENT_SET_NO": 999, "REV_AT_EPOCH": 10696, "BSTAR": 0.00039055, "MEAN_MOTION_DOT": 9.5e-05, "MEAN_MOTION_DDOT": 0}, "tle": {"line1": "1 58701U 24004B   25344.21140941  .00009500  00000+0  39055-3 0  9999", "line2": "2 58701  97.4570 165.0818 0004605 307.6999  52.3820 15.24376956106962"}}, "geometry": {"type": "Point", "coordinates": [158.3756945876179, 42.835375229467374]}}, {"type": "Feature", "properties": {"norad_id": 58702, "name": "TIANMU-1 17", "group": "weather", "lat": 51.846650928305436, "lon": -4.638082847515764, "alt_km": 490.36335460785085, "timestamp": "2025-12-10T11:33:53.034709+00:00", "meta": {"OBJECT_NAME": "TIANMU-1 17", "OBJECT_ID": "2024-004C", "EPOCH": "2025-12-10T04:42:21.204864", "MEAN_MOTION": 15.2442154, "ECCENTRICITY": 0.0003823, "INCLINATION": 97.4605, "RA_OF_ASC_NODE": 165.4753, "ARG_OF_PERICENTER": 311.5126, "MEAN_ANOMALY": 48.5783, "EPHEMERIS_TYPE": 0, "CLASSIFICATION_TYPE": "U", "NORAD_CAT_ID": 58702, "ELEMENT_SET_NO": 999, "REV_AT_EPOCH": 10695, "BSTAR": 0.00040996, "MEAN_MOTION_DOT": 9.989e-05, "MEAN_MOTION_DDOT": 0}, "tle": {"line1": "1 58702U 24004C   25344.19607876  .00009989  00000+0  40996-3 0  9999", "line2": "2 58702  97.4605 165.4753 0003823 311.5126  48.5783 15.24421540106955"}}, "geometry": {"type": "Point", "coordinates": [-4.638082847515764, 51.846650928305436]}}, {"type": "Feature", "properties": {"norad_id": 58703, "name": "TIANMU-1 18", "group": "weather", "lat": -38.74369431184016, "lon": -20.08256818595427, "alt_km": 499.15840787077195, "timestamp": "2025-12-10T11:33:53.034719+00:00", "meta": {"OBJECT_NAME": "TIANMU-1 18", "OBJECT_ID": "2024-004D", "EPOCH": "2025-12-10T04:18:17.791776", "MEAN_MOTION": 15.24410452, "ECCENTRICITY": 0.0003166, "INCLINATION": 97.4622, "RA_OF_ASC_NODE": 165.6534, "ARG_OF_PERICENTER": 312.6261, "MEAN_ANOMALY": 47.4709, "EPHEMERIS_TYPE": 0, "CLASSIFICATION_TYPE": "U", "NORAD_CAT_ID": 58703, "ELEMENT_SET_NO": 999, "REV_AT_EPOCH": 10695, "BSTAR": 0.00039647, "MEAN_MOTION_DOT": 9.654e-05, "MEAN_MOTION_DDOT": 0}, "tle": {"line1": "1 58703U 24004D   25344.17937259  .00009654  00000+0  39647-3 0  9999", "line2": "2 58703  97.4622 165.6534 0003166 312.6261  47.4709 15.24410452106952"}}, "geometry": {"type": "Point", "coordinates": [-20.08256818595427, -38.74369431184016]}}, {"type": "Feature", "properties": {"norad_id": 58990, "name": "INSAT-3DS", "group": "weather", "lat": -0.015794310006720134, "lon": -24.985777833956398, "alt_km": 35784.29885411134, "timestamp": "2025-12-10T11:33:53.034731+00:00", "meta": {"OBJECT_NAME": "INSAT-3DS", "OBJECT_ID": "2024-033A", "EPOCH": "2025-12-10T00:35:38.775840", "MEAN_MOTION": 1.00269607, "ECCENTRICITY": 0.0001616, "INCLINATION": 0.0292, "RA_OF_ASC_NODE": 112.0604, "ARG_OF_PERICENTER": 153.6709, "MEAN_ANOMALY": 264.2623, "EPHEMERIS_TYPE": 0, "CLASSIFICATION_TYPE": "U", "NORAD_CAT_ID": 58990, "ELEMENT_SET_NO": 999, "REV_AT_EPOCH": 4517, "BSTAR": 0, "MEAN_MOTION_DOT": -1.52e-06, "MEAN_MOTION_DDOT": 0}, "tle": {"line1": "1 58990U 24033A   25344.02475435 -.00000152  00000+0  00000+0 0  9998", "line2": "2 58990   0.0292 112.0604 0001616 153.6709 264.2623  1.00269607 45178"}}, "geometry": {"type": "Point", "coordinates": [-24.985777833956398, -0.015794310006720134]}}, {"type": "Feature", "properties": {"norad_id": 59051, "name": "METEOR-M2 4", "group": "weather", "lat": 37.50859769394545, "lon": 128.15684194541222, "alt_km": 818.2482521985248, "timestamp": "2025-12-10T11:33:53.034741+00:00", "meta": {"OBJECT_NAME": "METEOR-M2 4", "OBJECT_ID": "2024-039A", "EPOCH": "2025-12-10T04:08:49.920864", "MEAN_MOTION": 14.22400601, "ECCENTRICITY": 0.0007181, "INCLINATION": 98.6762, "RA_OF_ASC_NODE": 301.122, "ARG_OF_PERICENTER": 5.887, "MEAN_ANOMALY": 354.2391, "EPHEMERIS_TYPE": 0, "CLASSIFICATION_TYPE": "U", "NORAD_CAT_ID": 59051, "ELEMENT_SET_NO": 999, "REV_AT_EPOCH": 9239, "BSTAR": 5.658e-05, "MEAN_MOTION_DOT": 8.2e-07, "MEAN_MOTION_DDOT": 0}, "tle": {"line1": "1 59051U 24039A   25344.17280001  .00000082  00000+0  56580-4 0  9992", "line2": "2 59051  98.6762 301.1220 0007181   5.8870 354.2391 14.22400601 92394"}}, "geometry": {"type": "Point", "coordinates": [128.15684194541222, 37.50859769394545]}}, {"type": "Feature", "properties": {"norad_id": 60133, "name": "GOES 19", "group": "weather", "lat": -0.0019443798366409347, "lon": 177.73054454727745, "alt_km": 35789.86268156632, "timestamp": "2025-12-10T11:33:53.034755+00:00", "meta": {"OBJECT_NAME": "GOES 19", "OBJECT_ID": "2024-119A", "EPOCH": "2025-12-10T04:15:38.659392", "MEAN_MOTION": 1.00271292, "ECCENTRICITY": 0.0001349, "INCLINATION": 0.0042, "RA_OF_ASC_NODE": 252.4187, "ARG_OF_PERICENTER": 54.9848, "MEAN_ANOMALY": 120.4829, "EPHEMERIS_TYPE": 0, "CLASSIFICATION_TYPE": "U", "NORAD_CAT_ID": 60133, "ELEMENT_SET_NO": 999, "REV_AT_EPOCH": 506, "BSTAR": 0, "MEAN_MOTION_DOT": -2.45e-06, "MEAN_MOTION_DDOT": 0}, "tle": {"line1": "1 60133U 24119A   25344.17753078 -.00000245  00000+0  00000+0 0  9996", "line2": "2 60133   0.0042 252.4187 0001349  54.9848 120.4829  1.00271292  5066"}}, "geometry": {"type": "Point", "coordinates": [177.73054454727745, -0.0019443798366409347]}}, {"type": "Feature", "properties": {"norad_id": 65815, "name": "FENGYUN 3H", "group": "weather", "lat": 40.35945211477744, "lon": -83.31895538772058, "alt_km": 822.1625570292381, "timestamp": "2025-12-10T11:33:53.034769+00:00", "meta": {"OBJECT_NAME": "FENGYUN 3H", "OBJECT_ID": "2025-219A", "EPOCH": "2025-12-10T02:54:59.770368", "MEAN_MOTION": 14.19903515, "ECCENTRICITY": 6.03e-05, "INCLINATION": 98.6581, "RA_OF_ASC_NODE": 283.7688, "ARG_OF_PERICENTER": 86.9514, "MEAN_ANOMALY": 273.1732, "EPHEMERIS_TYPE": 0, "CLASSIFICATION_TYPE": "U", "NORAD_CAT_ID": 65815, "ELEMENT_SET_NO": 999, "REV_AT_EPOCH": 1055, "BSTAR": 0.0001029, "MEAN_MOTION_DOT": 1.75e-06, "MEAN_MOTION_DDOT": 0}, "tle": {"line1": "1 65815U 25219A   25344.12152512  .00000175  00000+0  10290-3 0  9998", "line2": "2 65815  98.6581 283.7688 0000603  86.9514 273.1732 14.19903515 10552"}}, "geometry": {"type": "Point", "coordinates": [-83.31895538772058, 40.35945211477744]}}]}